[{"OBJECT_NAME":"THOR 6","OBJECT_ID":"2009-058B","EPOCH":"2026-04-04T04:13:28.687872","MEAN_MOTION":1.00271058,"ECCENTRICITY":0.00020373,"INCLINATION":0.0102,"RA_OF_ASC_NODE":213.8522,"ARG_OF_PERICENTER":178.6208,"MEAN_ANOMALY":222.5478,"EPHEMERIS_TYPE":0,"CLASSIFICATION_TYPE":"U","NORAD_CAT_ID":36033,"ELEMENT_SET_NO":999,"REV_AT_EPOCH":6026,"BSTAR":0,"MEAN_MOTION_DOT":-1.1e-7,"MEAN_MOTION_DDOT":0},{"OBJECT_NAME":"INTELSAT 14 (IS-14)","OBJECT_ID":"2009-064A","EPOCH":"2026-04-04T05:27:38.799360","MEAN_MOTION":1.00272903,"ECCENTRICITY":0.00025583,"INCLINATION":0.0433,"RA_OF_ASC_NODE":73.1355,"ARG_OF_PERICENTER":308.7043,"MEAN_ANOMALY":207.6211,"EPHEMERIS_TYPE":0,"CLASSIFICATION_TYPE":"U","NORAD_CAT_ID":36097,"ELEMENT_SET_NO":999,"REV_AT_EPOCH":5986,"BSTAR":0,"MEAN_MOTION_DOT":-2.74e-6,"MEAN_MOTION_DDOT":0},{"OBJECT_NAME":"EUTELSAT 36B","OBJECT_ID":"2009-065A","EPOCH":"2026-04-04T05:50:38.728320","MEAN_MOTION":1.00273278,"ECCENTRICITY":0.00059865,"INCLINATION":0.3052,"RA_OF_ASC_NODE":78.9592,"ARG_OF_PERICENTER":298.9146,"MEAN_ANOMALY":312.827,"EPHEMERIS_TYPE":0,"CLASSIFICATION_TYPE":"U","NORAD_CAT_ID":36101,"ELEMENT_SET_NO":999,"REV_AT_EPOCH":5996,"BSTAR":0,"MEAN_MOTION_DOT":1.12e-6,"MEAN_MOTION_DDOT":0},{"OBJECT_NAME":"INTELSAT 15 (IS-15)","OBJECT_ID":"2009-067A","EPOCH":"2026-04-04T05:25:14.591712","MEAN_MOTION":1.00269977,"ECCENTRICITY":0.00024916,"INCLINATION":0.0189,"RA_OF_ASC_NODE":222.0014,"ARG_OF_PERICENTER":167.4493,"MEAN_ANOMALY":329.5559,"EPHEMERIS_TYPE":0,"CLASSIFICATION_TYPE":"U","NORAD_CAT_ID":36106,"ELEMENT_SET_NO":999,"REV_AT_EPOCH":4048,"BSTAR":0,"MEAN_MOTION_DOT":0,"MEAN_MOTION_DDOT":0},{"OBJECT_NAME":"WGS F3 (USA 211)","OBJECT_ID":"2009-068A","EPOCH":"2026-04-03T15:37:58.603872","MEAN_MOTION":1.00270885,"ECCENTRICITY":6.089e-5,"INCLINATION":0.4086,"RA_OF_ASC_NODE":85.5983,"ARG_OF_PERICENTER":346.7211,"MEAN_ANOMALY":224.1285,"EPHEMERIS_TYPE":0,"CLASSIFICATION_TYPE":"U","NORAD_CAT_ID":36108,"ELEMENT_SET_NO":999,"REV_AT_EPOCH":4584,"BSTAR":0,"MEAN_MOTION_DOT":6.3e-7,"MEAN_MOTION_DDOT":0},{"OBJECT_NAME":"DIRECTV 12","OBJECT_ID":"2009-075A","EPOCH":"2026-04-04T00:19:06.166848","MEAN_MOTION":1.00272211,"ECCENTRICITY":4.644e-5,"INCLINATION":0.0124,"RA_OF_ASC_NODE":329.7374,"ARG_OF_PERICENTER":71.5214,"MEAN_ANOMALY":53.1228,"EPHEMERIS_TYPE":0,"CLASSIFICATION_TYPE":"U","NORAD_CAT_ID":36131,"ELEMENT_SET_NO":999,"REV_AT_EPOCH":4581,"BSTAR":0,"MEAN_MOTION_DOT":-1.05e-6,"MEAN_MOTION_DDOT":0},{"OBJECT_NAME":"BEIDOU-2 G1","OBJECT_ID":"2010-001A","EPOCH":"2026-04-04T04:53:54.810240","MEAN_MOTION":1.00270807,"ECCENTRICITY":0.00042178,"INCLINATION":4.1211,"RA_OF_ASC_NODE":60.6047,"ARG_OF_PERICENTER":292.6054,"MEAN_ANOMALY":53.261,"EPHEMERIS_TYPE":0,"CLASSIFICATION_TYPE":"U","NORAD_CAT_ID":36287,"ELEMENT_SET_NO":999,"REV_AT_EPOCH":5942,"BSTAR":0,"MEAN_MOTION_DOT":-2.79e-6,"MEAN_MOTION_DDOT":0},{"OBJECT_NAME":"SDO","OBJECT_ID":"2010-005A","EPOCH":"2026-04-03T00:09:38.804832","MEAN_MOTION":1.00274249,"ECCENTRICITY":5.789e-5,"INCLINATION":34.4952,"RA_OF_ASC_NODE":87.4755,"ARG_OF_PERICENTER":22.7728,"MEAN_ANOMALY":341.7255,"EPHEMERIS_TYPE":0,"CLASSIFICATION_TYPE":"U","NORAD_CAT_ID":36395,"ELEMENT_SET_NO":999,"REV_AT_EPOCH":5931,"BSTAR":0,"MEAN_MOTION_DOT":-5.4e-7,"MEAN_MOTION_DDOT":0},{"OBJECT_NAME":"INTELSAT 16 (IS-16)","OBJECT_ID":"2010-006A","EPOCH":"2026-04-04T03:52:00.746400","MEAN_MOTION":1.00270165,"ECCENTRICITY":0.00021413,"INCLINATION":0.0149,"RA_OF_ASC_NODE":223.6596,"ARG_OF_PERICENTER":176.4368,"MEAN_ANOMALY":134.1877,"EPHEMERIS_TYPE":0,"CLASSIFICATION_TYPE":"U","NORAD_CAT_ID":36397,"ELEMENT_SET_NO":999,"REV_AT_EPOCH":5891,"BSTAR":0,"MEAN_MOTION_DOT":0,"MEAN_MOTION_DDOT":0},{"OBJECT_NAME":"EWS-G2 (GOES 15)","OBJECT_ID":"2010-008A","EPOCH":"2026-04-04T04:31:49.429056","MEAN_MOTION":1.00271551,"ECCENTRICITY":0.00032997,"INCLINATION":1.0837,"RA_OF_ASC_NODE":84.3159,"ARG_OF_PERICENTER":17.6509,"MEAN_ANOMALY":221.7739,"EPHEMERIS_TYPE":0,"CLASSIFICATION_TYPE":"U","NORAD_CAT_ID":36411,"ELEMENT_SET_NO":999,"REV_AT_EPOCH":5889,"BSTAR":0,"MEAN_MOTION_DOT":2.2e-7,"MEAN_MOTION_DDOT":0},{"OBJECT_NAME":"ECHOSTAR 14","OBJECT_ID":"2010-010A","EPOCH":"2026-04-04T01:57:11.759040","MEAN_MOTION":1.00271003,"ECCENTRICITY":0.00019311,"INCLINATION":0.0188,"RA_OF_ASC_NODE":208.0078,"ARG_OF_PERICENTER":178.4933,"MEAN_ANOMALY":76.2982,"EPHEMERIS_TYPE":0,"CLASSIFICATION_TYPE":"U","NORAD_CAT_ID":36499,"ELEMENT_SET_NO":999,"REV_AT_EPOCH":4581,"BSTAR":0,"MEAN_MOTION_DOT":0,"MEAN_MOTION_DDOT":0},{"OBJECT_NAME":"SES-1","OBJECT_ID":"2010-016A","EPOCH":"2026-04-04T05:27:36.577152","MEAN_MOTION":1.00269677,"ECCENTRICITY":0.00027787,"INCLINATION":0.0298,"RA_OF_ASC_NODE":283.2188,"ARG_OF_PERICENTER":95.1114,"MEAN_ANOMALY":155.1032,"EPHEMERIS_TYPE":0,"CLASSIFICATION_TYPE":"U","NORAD_CAT_ID":36516,"ELEMENT_SET_NO":999,"REV_AT_EPOCH":5829,"BSTAR":0,"MEAN_MOTION_DOT":-1.15e-6,"MEAN_MOTION_DDOT":0},{"OBJECT_NAME":"ASTRA 3B","OBJECT_ID":"2010-021A","EPOCH":"2026-04-04T04:39:38.850624","MEAN_MOTION":1.00272298,"ECCENTRICITY":0.00035856,"INCLINATION":1.278,"RA_OF_ASC_NODE":84.4359,"ARG_OF_PERICENTER":305.4312,"MEAN_ANOMALY":256.0405,"EPHEMERIS_TYPE":0,"CLASSIFICATION_TYPE":"U","NORAD_CAT_ID":36581,"ELEMENT_SET_NO":999,"REV_AT_EPOCH":5812,"BSTAR":0,"MEAN_MOTION_DOT":1.37e-6,"MEAN_MOTION_DDOT":0},{"OBJECT_NAME":"COMSATBW-2","OBJECT_ID":"2010-021B","EPOCH":"2026-04-04T04:17:35.792736","MEAN_MOTION":1.00268667,"ECCENTRICITY":0.00027009,"INCLINATION":0.0222,"RA_OF_ASC_NODE":234.9272,"ARG_OF_PERICENTER":150.7013,"MEAN_ANOMALY":244.4748,"EPHEMERIS_TYPE":0,"CLASSIFICATION_TYPE":"U","NORAD_CAT_ID":36582,"ELEMENT_SET_NO":999,"REV_AT_EPOCH":5821,"BSTAR":0,"MEAN_MOTION_DOT":8.7e-7,"MEAN_MOTION_DDOT":0},{"OBJECT_NAME":"BEIDOU-2 G3","OBJECT_ID":"2010-024A","EPOCH":"2026-04-04T01:11:08.675808","MEAN_MOTION":1.00272768,"ECCENTRICITY":0.00085369,"INCLINATION":4.341,"RA_OF_ASC_NODE":61.8052,"ARG_OF_PERICENTER":330.6007,"MEAN_ANOMALY":257.4261,"EPHEMERIS_TYPE":0,"CLASSIFICATION_TYPE":"U","NORAD_CAT_ID":36590,"ELEMENT_SET_NO":999,"REV_AT_EPOCH":5802,"BSTAR":0,"MEAN_MOTION_DOT":-1.35e-6,"MEAN_MOTION_DDOT":0},{"OBJECT_NAME":"BADR-5","OBJECT_ID":"2010-025A","EPOCH":"2026-04-04T04:21:12.946176","MEAN_MOTION":1.00269206,"ECCENTRICITY":0.00022768,"INCLINATION":0.0441,"RA_OF_ASC_NODE":124.7483,"ARG_OF_PERICENTER":295.4559,"MEAN_ANOMALY":223.6048,"EPHEMERIS_TYPE":0,"CLASSIFICATION_TYPE":"U","NORAD_CAT_ID":36592,"ELEMENT_SET_NO":999,"REV_AT_EPOCH":5247,"BSTAR":0,"MEAN_MOTION_DOT":1.44e-6,"MEAN_MOTION_DDOT":0},{"OBJECT_NAME":"COMS 1","OBJECT_ID":"2010-032A","EPOCH":"2026-04-04T06:08:38.620320","MEAN_MOTION":1.00272821,"ECCENTRICITY":0.00012902,"INCLINATION":4.6142,"RA_OF_ASC_NODE":76.3826,"ARG_OF_PERICENTER":319.9019,"MEAN_ANOMALY":16.6027,"EPHEMERIS_TYPE":0,"CLASSIFICATION_TYPE":"U","NORAD_CAT_ID":36744,"ELEMENT_SET_NO":999,"REV_AT_EPOCH":5034,"BSTAR":0,"MEAN_MOTION_DOT":-3.42e-6,"MEAN_MOTION_DDOT":0}]
