THOR 6                  
1 36033U 09058B   26094.17602648 -.00000011  00000+0  00000+0 0  9993
2 36033   0.0102 213.8522 0002037 178.6208 222.5478  1.00271058 60265
INTELSAT 14 (IS-14)     
1 36097U 09064A   26094.22753240 -.00000274  00000+0  00000+0 0  9992
2 36097   0.0433  73.1355 0002558 308.7043 207.6211  1.00272903 59867
EUTELSAT 36B            
1 36101U 09065A   26094.24350380  .00000112  00000+0  00000+0 0  9999
2 36101   0.3052  78.9592 0005986 298.9146 312.8270  1.00273278 59962
INTELSAT 15 (IS-15)     
1 36106U 09067A   26094.22586333  .00000000  00000+0  00000+0 0  9999
2 36106   0.0189 222.0014 0002491 167.4493 329.5559  1.00269977 40482
WGS F3 (USA 211)        
1 36108U 09068A   26093.65137273  .00000063  00000+0  00000+0 0  9992
2 36108   0.4086  85.5983 0000608 346.7211 224.1285  1.00270885 45840
DIRECTV 12              
1 36131U 09075A   26094.01326582 -.00000105  00000+0  00000+0 0  9998
2 36131   0.0124 329.7374 0000464  71.5214  53.1228  1.00272211 45817
BEIDOU-2 G1             
1 36287U 10001A   26094.20410660 -.00000279  00000+0  00000+0 0  9995
2 36287   4.1211  60.6047 0004217 292.6054  53.2610  1.00270807 59424
SDO                     
1 36395U 10005A   26093.00669913 -.00000054  00000+0  00000+0 0  9994
2 36395  34.4952  87.4755 0000578  22.7728 341.7255  1.00274249 59313
INTELSAT 16 (IS-16)     
1 36397U 10006A   26094.16111975  .00000000  00000+0  00000+0 0  9995
2 36397   0.0149 223.6596 0002141 176.4368 134.1877  1.00270165 58916
EWS-G2 (GOES 15)        
1 36411U 10008A   26094.18876654  .00000022  00000+0  00000+0 0  9992
2 36411   1.0837  84.3159 0003299  17.6509 221.7739  1.00271551 58890
ECHOSTAR 14             
1 36499U 10010A   26094.08138610  .00000000  00000+0  00000+0 0  9999
2 36499   0.0188 208.0078 0001931 178.4933  76.2982  1.00271003 45810
SES-1                   
1 36516U 10016A   26094.22750668 -.00000115  00000+0  00000+0 0  9992
2 36516   0.0298 283.2188 0002778  95.1114 155.1032  1.00269677 58298
ASTRA 3B                
1 36581U 10021A   26094.19419966  .00000137  00000+0  00000+0 0  9992
2 36581   1.2780  84.4359 0003585 305.4312 256.0405  1.00272298 58124
COMSATBW-2              
1 36582U 10021B   26094.17888649  .00000087  00000+0  00000+0 0  9993
2 36582   0.0222 234.9272 0002700 150.7013 244.4748  1.00268667 58212
BEIDOU-2 G3             
1 36590U 10024A   26094.04940597 -.00000135  00000+0  00000+0 0  9997
2 36590   4.3410  61.8052 0008536 330.6007 257.4261  1.00272768 58025
BADR-5                  
1 36592U 10025A   26094.18139984  .00000144  00000+0  00000+0 0  9994
2 36592   0.0441 124.7483 0002276 295.4559 223.6048  1.00269206 52470
COMS 1                  
1 36744U 10032A   26094.25600255 -.00000342  00000+0  00000+0 0  9994
2 36744   4.6142  76.3826 0001290 319.9019  16.6027  1.00272821 50346
